{
  "norad_id": 57784,
  "name": "STARLINK-30388",
  "history": [
    {
      "epoch": "2026-03-28T16:20:17.115360",
      "apogee_km": 483.8568272986013,
      "perigee_km": 482.2211229461309,
      "latitude_deg": -17.33877169174014,
      "longitude_deg": 23.752350399969146,
      "semi_major_axis_km": 6861.175975122365,
      "eccentricity": 0.0001192,
      "inclination_deg": 43.005,
      "raan_deg": 87.0247,
      "arg_perigee_deg": 264.5373,
      "mean_anomaly_deg": 95.5343,
      "mean_motion_rev_day": 15.2758338
    }
  ]
}