{"fetched_at":"2026-03-29T16:36:15Z","count":15609,"tles":[{"name":"STARLINK-30388","line1":"1 57784U 23134P   26087.68075365  .00001006  00000+0  46062-4 0  9995","line2":"2 57784  43.0050  87.0247 0001192 264.5373  95.5343 15.27583380142419","category":"Starlink"}]}